NORAD_CAT_ID,OBJECT_NAME,OBJECT_TYPE,EPOCH,MEAN_MOTION,ECCENTRICITY,INCLINATION,RA_OF_ASC_NODE,ARG_OF_PERICENTER,MEAN_ANOMALY,BSTAR,MEAN_MOTION_DOT,MEAN_MOTION_DDOT,TLE_LINE0,TLE_LINE1,TLE_LINE2,SEMIMAJOR_AXIS,PERIOD,APOGEE,PERIGEE,DECAYED
52362.0,STARLINK-3848,PAYLOAD,2023-08-08 01:40:15,15.08853819,0.0001104,53.2171,109.6884,98.7338,261.378,0.00026184,3.883e-05,0.0,0 STARLINK-3848,1 52362U 22045AH  23220.06962484  .00003883  00000-0  26184-3 0  9995,2 52362  53.2171 109.6884 0001104  98.7338 261.3780 15.08853819 73318,6917.838,95.437,540.467,538.939,0.0
52362.0,STARLINK-3848,PAYLOAD,2023-08-08 15:58:44,15.0884835,0.0001456,53.2164,107.0127,92.3719,267.744,0.0003864,5.868e-05,0.0,0 STARLINK-3848,1 52362U 22045AH  23220.66579015  .00005868  00000-0  38640-3 0  9990,2 52362  53.2164 107.0127 0001456  92.3719 267.7440 15.08848350 73402,6917.855,95.437,540.727,538.713,0.0
52362.0,STARLINK-3848,PAYLOAD,2023-08-09 01:31:03,15.08846238,0.0001347,53.2164,105.2263,86.9869,273.1277,0.00023065,3.385e-05,0.0,0 STARLINK-3848,1 52362U 22045AH  23221.06322927  .00003385  00000-0  23065-3 0  9990,2 52362  53.2164 105.2263 0001347  86.9869 273.1277 15.08846238 73465,6917.861,95.437,540.658,538.794,0.0
52362.0,STARLINK-3848,PAYLOAD,2023-08-10 01:21:50,15.0883706,0.0001313,53.2143,100.7667,82.3505,277.7636,-0.00015577,-2.766e-05,0.0,0 STARLINK-3848,1 52362U 22045AH  23222.05683269 -.00002766  00000-0 -15577-3 0  9992,2 52362  53.2143 100.7667 0001313  82.3505 277.7636 15.08837060 73619,6917.889,95.438,540.663,538.846,0.0
52362.0,STARLINK-3848,PAYLOAD,2023-08-11 01:12:36,15.08844407,0.0001144,53.2158,96.3069,81.125,278.9871,9.8765e-05,1.285e-05,0.0,0 STARLINK-3848,1 52362U 22045AH  23223.05042817  .00001285  00000-0  98765-4 0  9995,2 52362  53.2158  96.3069 0001144  81.1250 278.9871 15.08844407 73760,6917.867,95.437,540.523,538.941,0.0
52362.0,STARLINK-3848,PAYLOAD,2023-08-11 18:41:51,15.08839943,0.0001198,53.2155,93.0364,78.3903,281.7223,0.00010251,1.344e-05,0.0,0 STARLINK-3848,1 52362U 22045AH  23223.77907060  .00001344  00000-0  10251-3 0  9993,2 52362  53.2155  93.0364 0001198  78.3903 281.7223 15.08839943 73875,6917.881,95.438,540.574,538.917,0.0
52362.0,STARLINK-3848,PAYLOAD,2023-08-13 00:54:11,15.08842511,0.0001111,53.2169,87.3854,95.0224,265.0895,4.5373e-05,4.34e-06,0.0,0 STARLINK-3848,1 52362U 22045AH  23225.03762930  .00000434  00000-0  45373-4 0  9992,2 52362  53.2169  87.3854 0001111  95.0224 265.0895 15.08842511 74064,6917.873,95.437,540.506,538.969,0.0
52362.0,STARLINK-3848,PAYLOAD,2023-08-14 23:00:22,15.08836697,0.0001003,53.2181,78.7616,102.5778,257.5327,8.6855e-05,1.095e-05,0.0,0 STARLINK-3848,1 52362U 22045AH  23226.95859404  .00001095  00000-0  86855-4 0  9991,2 52362  53.2181  78.7616 0001003 102.5778 257.5327 15.08836697 74352,6917.89,95.438,540.449,539.062,0.0
52362.0,STARLINK-3848,PAYLOAD,2023-08-16 00:26:32,15.08846931,0.0001059,53.2184,74.0037,90.953,269.1583,0.00011528,1.548e-05,0.0,0 STARLINK-3848,1 52362U 22045AH  23228.01842844  .00001548  00000-0  11528-3 0  9997,2 52362  53.2184  74.0037 0001059  90.9530 269.1583 15.08846931 74511,6917.859,95.437,540.457,538.992,0.0
52362.0,STARLINK-3848,PAYLOAD,2023-08-17 00:17:19,15.08839476,0.0001147,53.2183,69.5434,90.6355,269.4768,9.8158e-05,1.275e-05,0.0,0 STARLINK-3848,1 52362U 22045AH  23229.01203391  .00001275  00000-0  98158-4 0  9998,2 52362  53.2183  69.5434 0001147  90.6355 269.4768 15.08839476 74660,6917.882,95.438,540.54,538.954,0.0
52362.0,STARLINK-3848,PAYLOAD,2023-08-18 19:12:44,15.08843282,0.0001012,53.2181,61.5146,92.2879,267.8229,6.8285e-05,7.99e-06,0.0,0 STARLINK-3848,1 52362U 22045AH  23230.80051278  .00000799  00000-0  68285-4 0  9990,2 52362  53.2181  61.5146 0001012  92.2879 267.8229 15.08843282 74934,6917.87,95.437,540.435,539.035,0.0
52362.0,STARLINK-3848,PAYLOAD,2023-08-19 12:41:59,15.08836372,0.0001275,53.2156,58.2433,92.1683,267.9455,6.291e-05,7.13e-06,0.0,0 STARLINK-3848,1 52362U 22045AH  23231.52915918  .00000713  00000-0  62910-4 0  9995,2 52362  53.2156  58.2433 0001275  92.1683 267.9455 15.08836372 75048,6917.891,95.438,540.639,538.874,0.0
52362.0,STARLINK-3848,PAYLOAD,2023-08-20 17:18:55,15.08843554,8.47e-05,53.217,52.8895,97.2485,262.8603,7.208e-05,8.6e-06,0.0,0 STARLINK-3848,1 52362U 22045AH  23232.72147537  .00000860  00000-0  72080-4 0  9994,2 52362  53.2170  52.8895 0000847  97.2485 262.8603 15.08843554 75225,6917.87,95.437,540.32,539.149,0.0
52362.0,STARLINK-3848,PAYLOAD,2023-08-21 12:23:33,15.08834861,9.13e-05,53.2159,49.3226,82.7802,277.3293,5.8352e-05,6.41e-06,0.0,0 STARLINK-3848,1 52362U 22045AH  23233.51636286  .00000641  00000-0  58352-4 0  9999,2 52362  53.2159  49.3226 0000913  82.7802 277.3293 15.08834861 75347,6917.896,95.438,540.393,539.129,0.0
52362.0,STARLINK-3848,PAYLOAD,2023-08-21 20:20:28,15.08844631,0.0001079,53.2177,47.8358,93.6952,266.4164,0.00012478,1.699e-05,0.0,0 STARLINK-3848,1 52362U 22045AH  23233.84755614  .00001699  00000-0  12478-3 0  9994,2 52362  53.2177  47.8358 0001079  93.6952 266.4164 15.08844631 75394,6917.866,95.437,540.478,538.985,0.0
52362.0,STARLINK-3848,PAYLOAD,2023-08-22 10:38:57,15.08833117,0.0001067,53.2191,45.1578,88.5878,271.5236,-1.1456e-05,-4.7e-06,0.0,0 STARLINK-3848,1 52362U 22045AH  23234.44372348 -.00000470  00000-0 -11456-4 0  9994,2 52362  53.2191  45.1578 0001067  88.5878 271.5236 15.08833117 75486,6917.901,95.438,540.505,539.028,0.0
52362.0,STARLINK-3848,PAYLOAD,2023-08-23 12:05:08,15.08839932,0.0001225,53.2182,40.4017,90.9877,269.1255,5.697e-05,6.19e-06,0.0,0 STARLINK-3848,1 52362U 22045AH  23235.50356559  .00000619  00000-0  56970-4 0  9991,2 52362  53.2182  40.4017 0001225  90.9877 269.1255 15.08839932 75647,6917.881,95.438,540.593,538.898,0.0
52362.0,STARLINK-3848,PAYLOAD,2023-08-24 10:20:32,15.08838554,0.0001257,53.2182,36.2389,91.933,268.1806,0.00012504,1.703e-05,0.0,0 STARLINK-3848,1 52362U 22045AH  23236.43092622  .00001703  00000-0  12504-3 0  9991,2 52362  53.2182  36.2389 0001257  91.9330 268.1806 15.08838554 75787,6917.885,95.438,540.619,538.88,0.0
52362.0,STARLINK-3848,PAYLOAD,2023-08-25 10:11:18,15.08842555,0.0001198,53.2182,31.7793,85.6095,274.5034,0.0001479,2.067e-05,0.0,0 STARLINK-3848,1 52362U 22045AH  23237.42452391  .00002067  00000-0  14790-3 0  9997,2 52362  53.2182  31.7793 0001198  85.6095 274.5034 15.08842555 75935,6917.873,95.437,540.566,538.909,0.0
52362.0,STARLINK-3848,PAYLOAD,2023-08-25 16:32:51,15.08846396,0.0001212,53.2179,30.5894,80.7933,279.3196,0.00013807,1.911e-05,0.0,0 STARLINK-3848,1 52362U 22045AH  23237.68948206  .00001911  00000-0  13807-3 0  9995,2 52362  53.2179  30.5894 0001212  80.7933 279.3196 15.08846396 75977,6917.861,95.437,540.564,538.887,0.0
52362.0,STARLINK-3848,PAYLOAD,2023-08-26 10:02:06,15.08841372,0.0001444,53.2189,27.3204,87.1683,272.9474,6.7921e-05,7.93e-06,0.0,0 STARLINK-3848,1 52362U 22045AH  23238.41812619  .00000793  00000-0  67921-4 0  9999,2 52362  53.2189  27.3204 0001444  87.1683 272.9474 15.08841372 76087,6917.876,95.437,540.74,538.742,0.0
52362.0,STARLINK-3848,PAYLOAD,2023-08-26 16:23:38,15.08840839,0.000143,53.2191,26.1309,87.8843,272.2313,5.5436e-05,5.94e-06,0.0,0 STARLINK-3848,1 52362U 22045AH  23238.68308659  .00000594  00000-0  55436-4 0  9999,2 52362  53.2191  26.1309 0001430  87.8843 272.2313 15.08840839 76120,6917.878,95.438,540.732,538.754,0.0
52362.0,STARLINK-3848,PAYLOAD,2023-08-27 09:52:53,15.08839991,0.0001432,53.2193,22.8597,97.9879,262.1276,8.0059e-05,9.86e-06,0.0,0 STARLINK-3848,1 52362U 22045AH  23239.41172612  .00000986  00000-0  80059-4 0  9993,2 52362  53.2193  22.8597 0001432  97.9879 262.1276 15.08839991 76232,6917.88,95.438,540.736,538.755,0.0
52362.0,STARLINK-3848,PAYLOAD,2023-08-27 14:39:02,15.08840821,0.000142,53.2193,21.967,106.8916,253.2232,7.6105e-05,9.24e-06,0.0,0 STARLINK-3848,1 52362U 22045AH  23239.61044492  .00000924  00000-0  76105-4 0  9998,2 52362  53.2193  21.9670 0001420 106.8916 253.2232 15.08840821 76263,6917.878,95.438,540.725,538.761,0.0
52362.0,STARLINK-3848,PAYLOAD,2023-08-28 16:05:12,15.08840652,0.0001203,53.2185,17.2091,92.7421,267.3709,8.9705e-05,1.14e-05,0.0,0 STARLINK-3848,1 52362U 22045AH  23240.67028629  .00001140  00000-0  89705-4 0  9991,2 52362  53.2185  17.2091 0001203  92.7421 267.3709 15.08840652 76427,6917.878,95.438,540.576,538.911,0.0
52362.0,STARLINK-3848,PAYLOAD,2023-08-29 09:34:27,15.08831634,0.0001326,53.219,13.9382,95.9175,264.1969,0.00012914,1.768e-05,0.0,0 STARLINK-3848,1 52362U 22045AH  23241.39893132  .00001768  00000-0  12914-3 0  9993,2 52362  53.2190  13.9382 0001326  95.9175 264.1969 15.08831634 76531,6917.906,95.438,540.688,538.854,0.0
52362.0,STARLINK-3848,PAYLOAD,2023-08-29 15:55:59,15.08843457,0.0001299,53.2193,12.7491,94.9589,265.1552,9.1831e-05,1.174e-05,0.0,0 STARLINK-3848,1 52362U 22045AH  23241.66388533  .00001174  00000-0  91831-4 0  9994,2 52362  53.2193  12.7491 0001299  94.9589 265.1552 15.08843457 76578,6917.87,95.437,540.633,538.836,0.0
52362.0,STARLINK-3848,PAYLOAD,2023-08-30 09:25:14,15.08831215,0.0001332,53.2191,9.479,96.6058,263.5086,0.00012478,1.698e-05,0.0,0 STARLINK-3848,1 52362U 22045AH  23242.39253167  .00001698  00000-0  12478-3 0  9999,2 52362  53.2191   9.4790 0001332  96.6058 263.5086 15.08831215 76684,6917.907,95.438,540.694,538.851,0.0
52362.0,STARLINK-3848,PAYLOAD,2023-08-30 15:46:47,15.08840451,0.0001331,53.219,8.2895,92.5506,267.5639,4.0189e-05,3.52e-06,0.0,0 STARLINK-3848,1 52362U 22045AH  23242.65748907  .00000352  00000-0  40189-4 0  9996,2 52362  53.2190   8.2895 0001331  92.5506 267.5639 15.08840451 76723,6917.879,95.438,540.665,538.823,0.0
52362.0,STARLINK-3848,PAYLOAD,2023-08-31 09:16:02,15.08835031,0.0001255,53.219,5.0185,94.4477,265.6658,1.8601e-05,8e-08,0.0,0 STARLINK-3848,1 52362U 22045AH  23243.38613496  .00000008  00000-0  18601-4 0  9993,2 52362  53.2190   5.0185 0001255  94.4477 265.6658 15.08835031 76833,6917.896,95.438,540.629,538.892,0.0
